{
  "type": "FeatureCollection",
  "features": [
    {
      "type": "Feature",
      "properties": {
        "norad_id": 15362,
        "name": "NOVA 3",
        "group": "nnss",
        "lat": -4.0307834969777145,
        "lon": 80.56746521425536,
        "alt_km": 1156.6131408516512,
        "timestamp": "2025-12-14T18:52:55.771905+00:00",
        "meta_object_name": "NOVA 3",
        "meta_object_id": "1984-110A",
        "meta_epoch": "2025-12-13T23:49:08.703840",
        "meta_mean_motion": 13.23044694,
        "meta_eccentricity": 0.00304149,
        "meta_inclination": 90.1223,
        "meta_ra_of_asc_node": 80.5495,
        "meta_arg_of_pericenter": 328.3437,
        "meta_mean_anomaly": 206.5615,
        "meta_ephemeris_type": 0,
        "meta_classification_type": "U",
        "meta_norad_cat_id": 15362,
        "meta_element_set_no": 999,
        "meta_rev_at_epoch": 98715,
        "meta_bstar": 0.00011988345,
        "meta_mean_motion_dot": 5.9e-07,
        "meta_mean_motion_ddot": 0,
        "tle_line1": "1 15362U 84110A   25347.99246185  .00000059  00000+0  11988-3 0  9999",
        "tle_line2": "2 15362  90.1223  80.5495 0030414 328.3437 206.5615 13.23044694987150"
      },
      "geometry": {
        "type": "Point",
        "coordinates": [
          80.56746521425536,
          -4.0307834969777145
        ]
      }
    },
    {
      "type": "Feature",
      "properties": {
        "norad_id": 15935,
        "name": "OSCAR 30",
        "group": "nnss",
        "lat": 5.3569689872534365,
        "lon": -80.10410406336882,
        "alt_km": 1138.0954505875989,
        "timestamp": "2025-12-14T18:52:55.771916+00:00",
        "meta_object_name": "OSCAR 30",
        "meta_object_id": "1985-066A",
        "meta_epoch": "2025-12-13T21:01:14.528640",
        "meta_mean_motion": 13.36078497,
        "meta_eccentricity": 0.01693877,
        "meta_inclination": 90.1651,
        "meta_ra_of_asc_node": 99.8656,
        "meta_arg_of_pericenter": 80.7343,
        "meta_mean_anomaly": 33.1422,
        "meta_ephemeris_type": 0,
        "meta_classification_type": "U",
        "meta_norad_cat_id": 15935,
        "meta_element_set_no": 999,
        "meta_rev_at_epoch": 96468,
        "meta_bstar": 0.00015802108,
        "meta_mean_motion_dot": 9.8e-07,
        "meta_mean_motion_ddot": 0,
        "tle_line1": "1 15935U 85066A   25347.87586260  .00000098  00000+0  15802-3 0  9996",
        "tle_line2": "2 15935  90.1651  99.8656 0169387  80.7343  33.1422 13.36078497964685"
      },
      "geometry": {
        "type": "Point",
        "coordinates": [
          -80.10410406336882,
          5.3569689872534365
        ]
      }
    },
    {
      "type": "Feature",
      "properties": {
        "norad_id": 15936,
        "name": "OSCAR 24",
        "group": "nnss",
        "lat": -67.51971072883285,
        "lon": -88.09131153982591,
        "alt_km": 1253.8642488944843,
        "timestamp": "2025-12-14T18:52:55.771926+00:00",
        "meta_object_name": "OSCAR 24",
        "meta_object_id": "1985-066B",
        "meta_epoch": "2025-12-13T20:39:33.553728",
        "meta_mean_motion": 13.3593597,
        "meta_eccentricity": 0.01704731,
        "meta_inclination": 90.179,
        "meta_ra_of_asc_node": 92.3252,
        "meta_arg_of_pericenter": 87.2115,
        "meta_mean_anomaly": 29.0488,
        "meta_ephemeris_type": 0,
        "meta_classification_type": "U",
        "meta_norad_cat_id": 15936,
        "meta_element_set_no": 999,
        "meta_rev_at_epoch": 96658,
        "meta_bstar": 0.00014735363,
        "meta_mean_motion_dot": 9.2e-07,
        "meta_mean_motion_ddot": 0,
        "tle_line1": "1 15936U 85066B   25347.86080502  .00000092  00000+0  14735-3 0  9992",
        "tle_line2": "2 15936  90.1790  92.3252 0170473  87.2115  29.0488 13.35935970966581"
      },
      "geometry": {
        "type": "Point",
        "coordinates": [
          -88.09131153982591,
          -67.51971072883285
        ]
      }
    },
    {
      "type": "Feature",
      "properties": {
        "norad_id": 17070,
        "name": "POLAR BEAR",
        "group": "nnss",
        "lat": 11.673797549480629,
        "lon": -176.22919460620992,
        "alt_km": 987.997579174802,
        "timestamp": "2025-12-14T18:52:55.771938+00:00",
        "meta_object_name": "POLAR BEAR",
        "meta_object_id": "1986-088A",
        "meta_epoch": "2025-12-14T00:09:50.268384",
        "meta_mean_motion": 13.75250991,
        "meta_eccentricity": 0.00410453,
        "meta_inclination": 89.6173,
        "meta_ra_of_asc_node": 183.7231,
        "meta_arg_of_pericenter": 115.5625,
        "meta_mean_anomaly": 357.7053,
        "meta_ephemeris_type": 0,
        "meta_classification_type": "U",
        "meta_norad_cat_id": 17070,
        "meta_element_set_no": 999,
        "meta_rev_at_epoch": 95996,
        "meta_bstar": 0.00013509761,
        "meta_mean_motion_dot": 1.42e-06,
        "meta_mean_motion_ddot": 0,
        "tle_line1": "1 17070U 86088A   25348.00683181  .00000142  00000+0  13510-3 0  9993",
        "tle_line2": "2 17070  89.6173 183.7231 0041045 115.5625 357.7053 13.75250991959965"
      },
      "geometry": {
        "type": "Point",
        "coordinates": [
          -176.22919460620992,
          11.673797549480629
        ]
      }
    },
    {
      "type": "Feature",
      "properties": {
        "norad_id": 18361,
        "name": "OSCAR 27",
        "group": "nnss",
        "lat": 46.14404297866295,
        "lon": 78.95918200551516,
        "alt_km": 1163.2040413203304,
        "timestamp": "2025-12-14T18:52:55.771948+00:00",
        "meta_object_name": "OSCAR 27",
        "meta_object_id": "1987-080A",
        "meta_epoch": "2025-12-13T23:00:27.366048",
        "meta_mean_motion": 13.44906947,
        "meta_eccentricity": 0.0103005,
        "meta_inclination": 90.3743,
        "meta_ra_of_asc_node": 79.318,
        "meta_arg_of_pericenter": 220.285,
        "meta_mean_anomaly": 139.0634,
        "meta_ephemeris_type": 0,
        "meta_classification_type": "U",
        "meta_norad_cat_id": 18361,
        "meta_element_set_no": 999,
        "meta_rev_at_epoch": 87573,
        "meta_bstar": 0.00019053386,
        "meta_mean_motion_dot": 1.23e-06,
        "meta_mean_motion_ddot": 0,
        "tle_line1": "1 18361U 87080A   25347.95865007  .00000123  00000+0  19053-3 0  9999",
        "tle_line2": "2 18361  90.3743  79.3180 0103005 220.2850 139.0634 13.44906947875736"
      },
      "geometry": {
        "type": "Point",
        "coordinates": [
          78.95918200551516,
          46.14404297866295
        ]
      }
    },
    {
      "type": "Feature",
      "properties": {
        "norad_id": 18362,
        "name": "OSCAR 29",
        "group": "nnss",
        "lat": 55.27427748556015,
        "lon": 79.2661279402255,
        "alt_km": 1164.8410606333691,
        "timestamp": "2025-12-14T18:52:55.771959+00:00",
        "meta_object_name": "OSCAR 29",
        "meta_object_id": "1987-080B",
        "meta_epoch": "2025-12-13T23:49:54.044832",
        "meta_mean_motion": 13.44448606,
        "meta_eccentricity": 0.01039871,
        "meta_inclination": 90.3753,
        "meta_ra_of_asc_node": 79.7782,
        "meta_arg_of_pericenter": 243.5261,
        "meta_mean_anomaly": 292.0994,
        "meta_ephemeris_type": 0,
        "meta_classification_type": "U",
        "meta_norad_cat_id": 18362,
        "meta_element_set_no": 999,
        "meta_rev_at_epoch": 87526,
        "meta_bstar": 0.00016704369,
        "meta_mean_motion_dot": 1.08e-06,
        "meta_mean_motion_ddot": 0,
        "tle_line1": "1 18362U 87080B   25347.99298663  .00000108  00000+0  16704-3 0  9995",
        "tle_line2": "2 18362  90.3753  79.7782 0103987 243.5261 292.0994 13.44448606875263"
      },
      "geometry": {
        "type": "Point",
        "coordinates": [
          79.2661279402255,
          55.27427748556015
        ]
      }
    },
    {
      "type": "Feature",
      "properties": {
        "norad_id": 19070,
        "name": "OSCAR 23",
        "group": "nnss",
        "lat": 65.84366358630213,
        "lon": 15.739525460484016,
        "alt_km": 1191.2964142981828,
        "timestamp": "2025-12-14T18:52:55.771970+00:00",
        "meta_object_name": "OSCAR 23",
        "meta_object_id": "1988-033A",
        "meta_epoch": "2025-12-13T19:54:10.129824",
        "meta_mean_motion": 13.27787267,
        "meta_eccentricity": 0.01896107,
        "meta_inclination": 90.3213,
        "meta_ra_of_asc_node": 16.4265,
        "meta_arg_of_pericenter": 176.8956,
        "meta_mean_anomaly": 356.9753,
        "meta_ephemeris_type": 0,
        "meta_classification_type": "U",
        "meta_norad_cat_id": 19070,
        "meta_element_set_no": 999,
        "meta_rev_at_epoch": 82267,
        "meta_bstar": 0.00017841582,
        "meta_mean_motion_dot": 9.7e-07,
        "meta_mean_motion_ddot": 0,
        "tle_line1": "1 19070U 88033A   25347.82928391  .00000097  00000+0  17842-3 0  9992",
        "tle_line2": "2 19070  90.3213  16.4265 0189610 176.8956 356.9753 13.27787267822671"
      },
      "geometry": {
        "type": "Point",
        "coordinates": [
          15.739525460484016,
          65.84366358630213
        ]
      }
    }
  ]
}